SITRO-AIS 8 (ANOKHIN)   
1 57193U 23091AD  26199.29717587  .00006619  00000+0  21058-3 0  9993
2 57193  97.5035 265.2229 0009185 356.5809   3.5369 15.32904899169218
SITRO-AIS 7 (FARTUSHNIY)
1 57194U 23091AE  26199.26640362  .00004903  00000+0  19249-3 0  9990
2 57194  97.5044 262.2333 0010815   7.1406 352.9984 15.26142582169014
AVION KALUGA 650        
1 57195U 23091AF  26199.28993236  .00002702  00000+0  12616-3 0  9990
2 57195  97.5069 258.7437 0010122  11.9190 348.2283 15.20649850168755
HORS 2                  
1 57196U 23091AG  26199.24912883  .00006800  00000+0  21841-3 0  9999
2 57196  97.5067 266.7159 0006517 343.2796  16.8230 15.32606387169280
A-SEANSAT-PG1           
1 57197U 23091AH  26199.25120023  .00009969  00000+0  26926-3 0  9996
2 57197  97.5060 269.5160 0005385 336.4733  23.6265 15.37947201169488
SITRO-AIS 10 (BURDAEV)  
1 57199U 23091AK  26199.25962126  .00010581  00000+0  26989-3 0  9997
2 57199  97.5060 270.5678 0004605 327.4745  32.6216 15.39697082169547
SITRO-AIS 9 (SHCHUKIN)  
1 57201U 23091AM  26199.16615919  .00010210  00000+0  26494-3 0  9996
2 57201  97.5060 270.1770 0004883 328.6795  31.4159 15.39178614169511
UTMN 2 (RS27S)          
1 57203U 23091AP  26199.20804692  .00006924  00000+0  22139-3 0  9990
2 57203  97.5067 266.8723 0006435 338.4220  21.6750 15.32743949169292
SITRO-AIS 12 (SMIRENNIY)
1 57204U 23091AQ  26199.15087501  .00011179  00000+0  28709-3 0  9994
2 57204  97.5072 270.6481 0004463 320.5732  39.5188 15.39474023169533
SITRO-AIS 11 (SHEFFER)  
1 57208U 23091AU  26199.22052174  .00011146  00000+0  28211-3 0  9996
2 57208  97.5070 270.9861 0004400 319.5320  40.5598 15.39921386169561
H2SAT (HEINRICH HERTZ)  
1 57213U 23093A   26199.09628100 -.00000007  00000+0  00000+0 0  9994
2 57213   0.0259 101.2408 0000168  31.9153 198.0918  1.00270990 11229
KUZGTU 1 (RS47S)        
1 57217U 23091AV  26199.29175520  .00006052  00000+0  20758-3 0  9992
2 57217  97.5042 264.1006 0009757 354.9710   5.1431 15.30510087169131
QIANKUN-1               
1 57422U 23103B   26197.61257860  .00006165  16552-5  75371-5 0  9999
2 57422  96.1400 240.3808 0035589 130.8922 229.5456 16.07858994172024
FENGYUN 3F              
1 57490U 23111A   26199.33121588  .00000004  00000+0  22264-4 0  9994
2 57490  98.6823 268.7575 0001211  75.7169 284.4142 14.19943744153283
HJ-2F                   
1 57519U 23116A   26199.27321079  .00003620  00000+0  15819-3 0  9995
2 57519  97.3851 203.9600 0006414 299.1121  60.9473 15.22718786163480
XRISM                   
1 57800U 23137A   26199.20568667  .00002291  00000+0  12223-3 0  9999
2 57800  31.0010 158.6362 0007853 276.0934  83.8810 15.12682622157569
METEOR-M2 4             
1 59051U 24039A   26199.27457128 -.00000014  00000+0  13380-4 0  9995
2 59051  98.7027 158.1849 0008255  81.1879 279.0233 14.22432322123686
GRBBETA                 
1 60237U 24128C   26199.14570953  .00001676  00000+0  12491-3 0  9995
2 60237  61.9888 107.6324 0036693 141.3297 219.0434 15.06819541110934
TRANSPORTER-11 OBJECT A 
1 60468U 24149A   26199.15545028  .00004536  00000+0  14310-3 0  9990
2 60468  97.3722 278.9974 0004963 109.1450 251.0330 15.33367213106807
WARATAH SEED-1          
1 60469U 24149B   26199.17932073  .00007230  00000+0  20420-3 0  9996
2 60469  97.3677 279.7975 0003294 115.1480 245.0106 15.36663042106876
PHISAT 2                
1 60470U 24149C   26199.15276905  .00005715  00000+0  19066-3 0  9991
2 60470  97.3747 278.2035 0003298 117.6314 242.5263 15.31458596106736
LEMUR-2-TOMATOKECHUP    
1 60471U 24149D   26199.17518508  .00005790  00000+0  16424-3 0  9990
2 60471  97.3790 281.3129 0003402 116.6950 243.4643 15.36619049106926
CONNECTA IOT-1          
1 60472U 24149E   26199.15954031  .00002135  00000+0  91712-4 0  9998
2 60472  97.3747 274.9305 0003014 135.9001 224.2478 15.23755055106515
LOPEN                   
1 60473U 24149F   26199.18696771  .00008546  00000+0  21267-3 0  9995
2 60473  97.3769 282.8147 0002971 128.6191 231.5322 15.40516620107031
ROCK                    
1 60474U 24149G   26199.17372785  .00008391  00000+0  20892-3 0  9992
2 60474  97.3765 282.8151 0003271 126.3666 233.7882 15.40504227107034
CONNECTA IOT-3          
1 60475U 24149H   26199.18065710  .00002073  00000+0  89081-4 0  9998
2 60475  97.3721 274.6948 0004179 136.1222 224.0347 15.23768721106529
QUBE                    
1 60476U 24149J   26199.13825541  .00014154  00000+0  26691-3 0  9990
2 60476  97.3771 286.1998 0003359 123.6630 236.4941 15.48592544107254
WREN-1                  
1 60478U 24149L   26199.15006114  .00011537  00000+0  26623-3 0  9998
2 60478  97.3757 283.6131 0005506 142.2123 217.9512 15.42699024107096
TOMORROW-S1             
1 60479U 24149M   26199.14280915  .00003870  00000+0  12342-3 0  9995
2 60479  97.3740 279.5248 0004197 124.5841 235.5798 15.33116471106830
